{
  "type": "FeatureCollection",
  "features": [
    {
      "type": "Feature",
      "properties": {
        "norad_id": 30395,
        "name": "FENGYUN 1C DEB",
        "group": "fengyun-1c-debris",
        "lat": -18.289896851999206,
        "lon": -4.277484169785214,
        "alt_km": 871.7096849246063,
        "timestamp": "2025-12-02T21:34:01.547277+00:00",
        "meta_object_name": "FENGYUN 1C DEB",
        "meta_object_id": "1999-025ADJ",
        "meta_epoch": "2025-12-01T23:34:34.483584",
        "meta_mean_motion": 13.96666036,
        "meta_eccentricity": 0.01608716,
        "meta_inclination": 98.9309,
        "meta_ra_of_asc_node": 351.8535,
        "meta_arg_of_pericenter": 55.7692,
        "meta_mean_anomaly": 3.0049,
        "meta_ephemeris_type": 0,
        "meta_classification_type": "U",
        "meta_norad_cat_id": 30395,
        "meta_element_set_no": 999,
        "meta_rev_at_epoch": 95873,
        "meta_bstar": 0.00064515709,
        "meta_mean_motion_dot": 9.56e-06,
        "meta_mean_motion_ddot": 0,
        "tle_line1": "1 30395U 99025ADJ 25335.98234356  .00000956  00000+0  64516-3 0  9997",
        "tle_line2": "2 30395  98.9309 351.8535 0160871  55.7692   3.0049 13.96666036958731"
      },
      "geometry": {
        "type": "Point",
        "coordinates": [
          -4.277484169785214,
          -18.289896851999206
        ]
      }
    },
    {
      "type": "Feature",
      "properties": {
        "norad_id": 30396,
        "name": "FENGYUN 1C DEB",
        "group": "fengyun-1c-debris",
        "lat": -78.68220314530302,
        "lon": 116.61296926381658,
        "alt_km": 970.8102461410008,
        "timestamp": "2025-12-02T21:34:01.547287+00:00",
        "meta_object_name": "FENGYUN 1C DEB",
        "meta_object_id": "1999-025ADK",
        "meta_epoch": "2025-12-01T23:48:48.049920",
        "meta_mean_motion": 13.87163943,
        "meta_eccentricity": 0.01345654,
        "meta_inclination": 98.2242,
        "meta_ra_of_asc_node": 342.0842,
        "meta_arg_of_pericenter": 159.3065,
        "meta_mean_anomaly": 257.4929,
        "meta_ephemeris_type": 0,
        "meta_classification_type": "U",
        "meta_norad_cat_id": 30396,
        "meta_element_set_no": 999,
        "meta_rev_at_epoch": 95430,
        "meta_bstar": 0.00014450773,
        "meta_mean_motion_dot": 1.47e-06,
        "meta_mean_motion_ddot": 0,
        "tle_line1": "1 30396U 99025ADK 25335.99222280  .00000147  00000+0  14451-3 0  9997",
        "tle_line2": "2 30396  98.2242 342.0842 0134565 159.3065 257.4929 13.87163943954300"
      },
      "geometry": {
        "type": "Point",
        "coordinates": [
          116.61296926381658,
          -78.68220314530302
        ]
      }
    },
    {
      "type": "Feature",
      "properties": {
        "norad_id": 30397,
        "name": "FENGYUN 1C DEB",
        "group": "fengyun-1c-debris",
        "lat": 74.88092392365218,
        "lon": -20.906647889706303,
        "alt_km": 787.5037729521591,
        "timestamp": "2025-12-02T21:34:01.547297+00:00",
        "meta_object_name": "FENGYUN 1C DEB",
        "meta_object_id": "1999-025ADL",
        "meta_epoch": "2025-12-02T09:19:19.736832",
        "meta_mean_motion": 13.98531692,
        "meta_eccentricity": 0.0149913,
        "meta_inclination": 98.4058,
        "meta_ra_of_asc_node": 125.4448,
        "meta_arg_of_pericenter": 121.4792,
        "meta_mean_anomaly": 294.304,
        "meta_ephemeris_type": 0,
        "meta_classification_type": "U",
        "meta_norad_cat_id": 30397,
        "meta_element_set_no": 999,
        "meta_rev_at_epoch": 95620,
        "meta_bstar": 0.0014182,
        "meta_mean_motion_dot": 2.2e-05,
        "meta_mean_motion_ddot": 0,
        "tle_line1": "1 30397U 99025ADL 25336.38842288  .00002200  00000+0  14182-2 0  9990",
        "tle_line2": "2 30397  98.4058 125.4448 0149913 121.4792 294.3040 13.98531692956200"
      },
      "geometry": {
        "type": "Point",
        "coordinates": [
          -20.906647889706303,
          74.88092392365218
        ]
      }
    },
    {
      "type": "Feature",
      "properties": {
        "norad_id": 30398,
        "name": "FENGYUN 1C DEB",
        "group": "fengyun-1c-debris",
        "lat": 37.47581747082909,
        "lon": 60.724259088339586,
        "alt_km": 1093.0307484160985,
        "timestamp": "2025-12-02T21:34:01.547307+00:00",
        "meta_object_name": "FENGYUN 1C DEB",
        "meta_object_id": "1999-025ADM",
        "meta_epoch": "2025-12-02T00:03:04.849344",
        "meta_mean_motion": 13.78677915,
        "meta_eccentricity": 0.01732326,
        "meta_inclination": 99.7138,
        "meta_ra_of_asc_node": 232.2604,
        "meta_arg_of_pericenter": 324.073,
        "meta_mean_anomaly": 50.568,
        "meta_ephemeris_type": 0,
        "meta_classification_type": "U",
        "meta_norad_cat_id": 30398,
        "meta_element_set_no": 999,
        "meta_rev_at_epoch": 94609,
        "meta_bstar": 0.00063440596,
        "meta_mean_motion_dot": 6.72e-06,
        "meta_mean_motion_ddot": 0,
        "tle_line1": "1 30398U 99025ADM 25336.00213946  .00000672  00000+0  63441-3 0  9997",
        "tle_line2": "2 30398  99.7138 232.2604 0173232 324.0730  50.5680 13.78677915946094"
      },
      "geometry": {
        "type": "Point",
        "coordinates": [
          60.724259088339586,
          37.47581747082909
        ]
      }
    },
    {
      "type": "Feature",
      "properties": {
        "norad_id": 30400,
        "name": "FENGYUN 1C DEB",
        "group": "fengyun-1c-debris",
        "lat": -55.449986356585455,
        "lon": -82.21361416623924,
        "alt_km": 780.8241429293475,
        "timestamp": "2025-12-02T21:34:01.547317+00:00",
        "meta_object_name": "FENGYUN 1C DEB",
        "meta_object_id": "1999-025ADP",
        "meta_epoch": "2025-12-02T08:46:04.681344",
        "meta_mean_motion": 14.09643735,
        "meta_eccentricity": 0.0228584,
        "meta_inclination": 99.1554,
        "meta_ra_of_asc_node": 263.6988,
        "meta_arg_of_pericenter": 4.5413,
        "meta_mean_anomaly": 116.374,
        "meta_ephemeris_type": 0,
        "meta_classification_type": "U",
        "meta_norad_cat_id": 30400,
        "meta_element_set_no": 999,
        "meta_rev_at_epoch": 95368,
        "meta_bstar": 0.0053214,
        "meta_mean_motion_dot": 0.00011855,
        "meta_mean_motion_ddot": 0,
        "tle_line1": "1 30400U 99025ADP 25336.36533196  .00011855  00000+0  53214-2 0  9993",
        "tle_line2": "2 30400  99.1554 263.6988 0228584   4.5413 116.3740 14.09643735953685"
      },
      "geometry": {
        "type": "Point",
        "coordinates": [
          -82.21361416623924,
          -55.449986356585455
        ]
      }
    },
    {
      "type": "Feature",
      "properties": {
        "norad_id": 30401,
        "name": "FENGYUN 1C DEB",
        "group": "fengyun-1c-debris",
        "lat": 43.90982451088294,
        "lon": -155.1774807172461,
        "alt_km": 821.9167898481583,
        "timestamp": "2025-12-02T21:34:01.547327+00:00",
        "meta_object_name": "FENGYUN 1C DEB",
        "meta_object_id": "1999-025ADQ",
        "meta_epoch": "2025-12-02T09:35:03.562656",
        "meta_mean_motion": 14.27978658,
        "meta_eccentricity": 0.0107444,
        "meta_inclination": 98.9478,
        "meta_ra_of_asc_node": 213.0347,
        "meta_arg_of_pericenter": 157.3182,
        "meta_mean_anomaly": 203.2798,
        "meta_ephemeris_type": 0,
        "meta_classification_type": "U",
        "meta_norad_cat_id": 30401,
        "meta_element_set_no": 999,
        "meta_rev_at_epoch": 98156,
        "meta_bstar": 0.0001942,
        "meta_mean_motion_dot": 4.66e-06,
        "meta_mean_motion_ddot": 0,
        "tle_line1": "1 30401U 99025ADQ 25336.39934679  .00000466  00000+0  19420-3 0  9996",
        "tle_line2": "2 30401  98.9478 213.0347 0107444 157.3182 203.2798 14.27978658981569"
      },
      "geometry": {
        "type": "Point",
        "coordinates": [
          -155.1774807172461,
          43.90982451088294
        ]
      }
    },
    {
      "type": "Feature",
      "properties": {
        "norad_id": 30403,
        "name": "FENGYUN 1C DEB",
        "group": "fengyun-1c-debris",
        "lat": 80.63640650047279,
        "lon": -20.336461134434575,
        "alt_km": 769.0042112200945,
        "timestamp": "2025-12-02T21:34:01.547337+00:00",
        "meta_object_name": "FENGYUN 1C DEB",
        "meta_object_id": "1999-025ADS",
        "meta_epoch": "2025-12-02T04:16:03.679104",
        "meta_mean_motion": 14.21392665,
        "meta_eccentricity": 0.00754654,
        "meta_inclination": 99.0608,
        "meta_ra_of_asc_node": 54.3277,
        "meta_arg_of_pericenter": 53.8438,
        "meta_mean_anomaly": 306.969,
        "meta_ephemeris_type": 0,
        "meta_classification_type": "U",
        "meta_norad_cat_id": 30403,
        "meta_element_set_no": 999,
        "meta_rev_at_epoch": 96656,
        "meta_bstar": 0.0021385101,
        "meta_mean_motion_dot": 4.764e-05,
        "meta_mean_motion_ddot": 0,
        "tle_line1": "1 30403U 99025ADS 25336.17782036  .00004764  00000+0  21385-2 0  9999",
        "tle_line2": "2 30403  99.0608  54.3277 0075465  53.8438 306.9690 14.21392665966564"
      },
      "geometry": {
        "type": "Point",
        "coordinates": [
          -20.336461134434575,
          80.63640650047279
        ]
      }
    }
  ]
}